{"type": "FeatureCollection", "features": [ {"type": "Feature", "properties": {"norad_id": 34077, "name": "IRIDIUM 33 DEB", "group": "iridium-33-debris", "lat": -8.72867813549497, "lon": 51.063576143545895, "alt_km": 676.9800577760252, "timestamp": "2025-12-12T11:38:31.797255+00:00", "meta": {"OBJECT_NAME": "IRIDIUM 33 DEB", "OBJECT_ID": "1997-051CL", "EPOCH": "2025-12-12T03:35:01.827744", "MEAN_MOTION": 14.64827938, "ECCENTRICITY": 0.0010268, "INCLINATION": 86.3861, "RA_OF_ASC_NODE": 51.7674, "ARG_OF_PERICENTER": 41.2914, "MEAN_ANOMALY": 340.71, "EPHEMERIS_TYPE": 0, "CLASSIFICATION_TYPE": "U", "NORAD_CAT_ID": 34077, "ELEMENT_SET_NO": 999, "REV_AT_EPOCH": 88324, "BSTAR": 0.0021064, "MEAN_MOTION_DOT": 0.00011278, "MEAN_MOTION_DDOT": 0}, "tle": {"line1": "1 34077U 97051CL  25346.14932671  .00011278  00000+0  21064-2 0  9999", "line2": "2 34077  86.3861  51.7674 0010268  41.2914 340.7100 14.64827938883245"}}, "geometry": {"type": "Point", "coordinates": [51.063576143545895, -8.72867813549497]}}, {"type": "Feature", "properties": {"norad_id": 34079, "name": "IRIDIUM 33 DEB", "group": "iridium-33-debris", "lat": -33.96780651774017, "lon": 6.332302839836549, "alt_km": 621.6718457820589, "timestamp": "2025-12-12T11:38:31.797266+00:00", "meta": {"OBJECT_NAME": "IRIDIUM 33 DEB", "OBJECT_ID": "1997-051CN", "EPOCH": "2025-12-12T02:19:21.891360", "MEAN_MOTION": 14.83502874, "ECCENTRICITY": 0.0005645, "INCLINATION": 86.3781, "RA_OF_ASC_NODE": 8.9545, "ARG_OF_PERICENTER": 10.4364, "MEAN_ANOMALY": 43.223, "EPHEMERIS_TYPE": 0, "CLASSIFICATION_TYPE": "U", "NORAD_CAT_ID": 34079, "ELEMENT_SET_NO": 999, "REV_AT_EPOCH": 88968, "BSTAR": 0.0022556, "MEAN_MOTION_DOT": 0.00018607, "MEAN_MOTION_DDOT": 0}, "tle": {"line1": "1 34079U 97051CN  25346.09678115  .00018607  00000+0  22556-2 0  9995", "line2": "2 34079  86.3781   8.9545 0005645  10.4364  43.2230 14.83502874889682"}}, "geometry": {"type": "Point", "coordinates": [6.332302839836549, -33.96780651774017]}}, {"type": "Feature", "properties": {"norad_id": 34088, "name": "IRIDIUM 33 DEB", "group": "iridium-33-debris", "lat": 49.94930154312881, "lon": 35.15395756466515, "alt_km": 591.601630759541, "timestamp": "2025-12-12T11:38:31.797278+00:00", "meta": {"OBJECT_NAME": "IRIDIUM 33 DEB", "OBJECT_ID": "1997-051CX", "EPOCH": "2025-12-12T03:36:20.386080", "MEAN_MOTION": 14.91344676, "ECCENTRICITY": 0.000558, "INCLINATION": 86.3851, "RA_OF_ASC_NODE": 30.9947, "ARG_OF_PERICENTER": 178.9663, "MEAN_ANOMALY": 234.6455, "EPHEMERIS_TYPE": 0, "CLASSIFICATION_TYPE": "U", "NORAD_CAT_ID": 34088, "ELEMENT_SET_NO": 999, "REV_AT_EPOCH": 88733, "BSTAR": 0.0035089, "MEAN_MOTION_DOT": 0.00035146, "MEAN_MOTION_DDOT": 0}, "tle": {"line1": "1 34088U 97051CX  25346.15023595  .00035146  00000+0  35089-2 0  9990", "line2": "2 34088  86.3851  30.9947 0005580 178.9663 234.6455 14.91344676887339"}}, "geometry": {"type": "Point", "coordinates": [35.15395756466515, 49.94930154312881]}}, {"type": "Feature", "properties": {"norad_id": 34091, "name": "IRIDIUM 33 DEB", "group": "iridium-33-debris", "lat": -63.92338431395284, "lon": -105.53638222020032, "alt_km": 616.032318838882, "timestamp": "2025-12-12T11:38:31.797289+00:00", "meta": {"OBJECT_NAME": "IRIDIUM 33 DEB", "OBJECT_ID": "1997-051DA", "EPOCH": "2025-12-11T16:42:44.021376", "MEAN_MOTION": 14.81703346, "ECCENTRICITY": 0.00332733, "INCLINATION": 86.341, "RA_OF_ASC_NODE": 67.3114, "ARG_OF_PERICENTER": 296.9804, "MEAN_ANOMALY": 62.8021, "EPHEMERIS_TYPE": 0, "CLASSIFICATION_TYPE": "U", "NORAD_CAT_ID": 34091, "ELEMENT_SET_NO": 999, "REV_AT_EPOCH": 87851, "BSTAR": 0.0060351741, "MEAN_MOTION_DOT": 0.00048284, "MEAN_MOTION_DDOT": 0}, "tle": {"line1": "1 34091U 97051DA  25345.69634284  .00048284  00000+0  60352-2 0  9993", "line2": "2 34091  86.3410  67.3114 0033273 296.9804  62.8021 14.81703346878514"}}, "geometry": {"type": "Point", "coordinates": [-105.53638222020032, -63.92338431395284]}}, {"type": "Feature", "properties": {"norad_id": 34097, "name": "IRIDIUM 33 DEB", "group": "iridium-33-debris", "lat": 3.9229862549854495, "lon": -178.74087999975043, "alt_km": 837.0380929841758, "timestamp": "2025-12-12T11:38:31.797299+00:00", "meta": {"OBJECT_NAME": "IRIDIUM 33 DEB", "OBJECT_ID": "1997-051DG", "EPOCH": "2025-12-12T00:46:57.891936", "MEAN_MOTION": 14.3476745, "ECCENTRICITY": 0.0082672, "INCLINATION": 86.2008, "RA_OF_ASC_NODE": 1.7198, "ARG_OF_PERICENTER": 4.5012, "MEAN_ANOMALY": 355.6908, "EPHEMERIS_TYPE": 0, "CLASSIFICATION_TYPE": "U", "NORAD_CAT_ID": 34097, "ELEMENT_SET_NO": 999, "REV_AT_EPOCH": 87109, "BSTAR": 0.002168, "MEAN_MOTION_DOT": 6.405e-05, "MEAN_MOTION_DDOT": 0}, "tle": {"line1": "1 34097U 97051DG  25346.03261449  .00006405  00000+0  21680-2 0  9997", "line2": "2 34097  86.2008   1.7198 0082672   4.5012 355.6908 14.34767450871094"}}, "geometry": {"type": "Point", "coordinates": [-178.74087999975043, 3.9229862549854495]}}, {"type": "Feature", "properties": {"norad_id": 34145, "name": "IRIDIUM 33 DEB", "group": "iridium-33-debris", "lat": 77.44863757003482, "lon": -10.048349163193167, "alt_km": 705.687354844109, "timestamp": "2025-12-12T11:38:31.797310+00:00", "meta": {"OBJECT_NAME": "IRIDIUM 33 DEB", "OBJECT_ID": "1997-051DY", "EPOCH": "2025-12-11T23:37:41.599200", "MEAN_MOTION": 14.42279969, "ECCENTRICITY": 0.0055694, "INCLINATION": 86.2122, "RA_OF_ASC_NODE": 332.8629, "ARG_OF_PERICENTER": 96.2305, "MEAN_ANOMALY": 264.5244, "EPHEMERIS_TYPE": 0, "CLASSIFICATION_TYPE": "U", "NORAD_CAT_ID": 34145, "ELEMENT_SET_NO": 999, "REV_AT_EPOCH": 87627, "BSTAR": 0.0017354, "MEAN_MOTION_DOT": 5.852e-05, "MEAN_MOTION_DDOT": 0}, "tle": {"line1": "1 34145U 97051DY  25345.98450925  .00005852  00000+0  17354-2 0  9991", "line2": "2 34145  86.2122 332.8629 0055694  96.2305 264.5244 14.42279969876277"}}, "geometry": {"type": "Point", "coordinates": [-10.048349163193167, 77.44863757003482]}}, {"type": "Feature", "properties": {"norad_id": 34146, "name": "IRIDIUM 33 DEB", "group": "iridium-33-debris", "lat": 69.20544524213243, "lon": -0.23296862655162554, "alt_km": 738.2419589826168, "timestamp": "2025-12-12T11:38:31.797321+00:00", "meta": {"OBJECT_NAME": "IRIDIUM 33 DEB", "OBJECT_ID": "1997-051DZ", "EPOCH": "2025-12-11T23:59:18.754368", "MEAN_MOTION": 14.49040748, "ECCENTRICITY": 0.0025427, "INCLINATION": 86.284, "RA_OF_ASC_NODE": 350.1275, "ARG_OF_PERICENTER": 224.2485, "MEAN_ANOMALY": 194.0777, "EPHEMERIS_TYPE": 0, "CLASSIFICATION_TYPE": "U", "NORAD_CAT_ID": 34146, "ELEMENT_SET_NO": 999, "REV_AT_EPOCH": 88096, "BSTAR": 0.0014807, "MEAN_MOTION_DOT": 5.661e-05, "MEAN_MOTION_DDOT": 0}, "tle": {"line1": "1 34146U 97051DZ  25345.99952262  .00005661  00000+0  14807-2 0  9992", "line2": "2 34146  86.2840 350.1275 0025427 224.2485 194.0777 14.49040748880965"}}, "geometry": {"type": "Point", "coordinates": [-0.23296862655162554, 69.20544524213243]}}, {"type": "Feature", "properties": {"norad_id": 34159, "name": "IRIDIUM 33 DEB", "group": "iridium-33-debris", "lat": 25.851333102621872, "lon": -133.42185854834744, "alt_km": 775.781893544834, "timestamp": "2025-12-12T11:38:31.797331+00:00", "meta": {"OBJECT_NAME": "IRIDIUM 33 DEB", "OBJECT_ID": "1997-051EN", "EPOCH": "2025-12-12T04:14:54.367296", "MEAN_MOTION": 14.38492012, "ECCENTRICITY": 0.0026045, "INCLINATION": 86.351, "RA_OF_ASC_NODE": 48.4813, "ARG_OF_PERICENTER": 289.8308, "MEAN_ANOMALY": 70.0083, "EPHEMERIS_TYPE": 0, "CLASSIFICATION_TYPE": "U", "NORAD_CAT_ID": 34159, "ELEMENT_SET_NO": 999, "REV_AT_EPOCH": 87951, "BSTAR": 0.00065904, "MEAN_MOTION_DOT": 2.039e-05, "MEAN_MOTION_DDOT": 0}, "tle": {"line1": "1 34159U 97051EN  25346.17701814  .00002039  00000+0  65904-3 0  9993", "line2": "2 34159  86.3510  48.4813 0026045 289.8308  70.0083 14.38492012879512"}}, "geometry": {"type": "Point", "coordinates": [-133.42185854834744, 25.851333102621872]}}, {"type": "Feature", "properties": {"norad_id": 34350, "name": "IRIDIUM 33 DEB", "group": "iridium-33-debris", "lat": 3.02548506319433, "lon": -177.2766659655538, "alt_km": 731.1600959546768, "timestamp": "2025-12-12T11:38:31.797342+00:00", "meta": {"OBJECT_NAME": "IRIDIUM 33 DEB", "OBJECT_ID": "1997-051ES", "EPOCH": "2025-12-12T01:07:32.541888", "MEAN_MOTION": 14.45384473, "ECCENTRICITY": 0.0022774, "INCLINATION": 86.3275, "RA_OF_ASC_NODE": 3.1079, "ARG_OF_PERICENTER": 137.3391, "MEAN_ANOMALY": 280.7434, "EPHEMERIS_TYPE": 0, "CLASSIFICATION_TYPE": "U", "NORAD_CAT_ID": 34350, "ELEMENT_SET_NO": 999, "REV_AT_EPOCH": 88283, "BSTAR": 0.00047567, "MEAN_MOTION_DOT": 1.697e-05, "MEAN_MOTION_DDOT": 0}, "tle": {"line1": "1 34350U 97051ES  25346.04690442  .00001697  00000+0  47567-3 0  9990", "line2": "2 34350  86.3275   3.1079 0022774 137.3391 280.7434 14.45384473882837"}}, "geometry": {"type": "Point", "coordinates": [-177.2766659655538, 3.02548506319433]}}, {"type": "Feature", "properties": {"norad_id": 34366, "name": "IRIDIUM 33 DEB", "group": "iridium-33-debris", "lat": 43.13279896628881, "lon": -133.98646462240168, "alt_km": 693.0719858081611, "timestamp": "2025-12-12T11:38:31.797352+00:00", "meta": {"OBJECT_NAME": "IRIDIUM 33 DEB", "OBJECT_ID": "1997-051FJ", "EPOCH": "2025-12-12T04:39:17.531424", "MEAN_MOTION": 14.54051979, "ECCENTRICITY": 0.0022431, "INCLINATION": 86.3694, "RA_OF_ASC_NODE": 49.5503, "ARG_OF_PERICENTER": 141.384, "MEAN_ANOMALY": 272.3047, "EPHEMERIS_TYPE": 0, "CLASSIFICATION_TYPE": "U", "NORAD_CAT_ID": 34366, "ELEMENT_SET_NO": 999, "REV_AT_EPOCH": 88174, "BSTAR": 0.0017102, "MEAN_MOTION_DOT": 7.261e-05, "MEAN_MOTION_DDOT": 0}, "tle": {"line1": "1 34366U 97051FJ  25346.19395291  .00007261  00000+0  17102-2 0  9991", "line2": "2 34366  86.3694  49.5503 0022431 141.3840 272.3047 14.54051979881747"}}, "geometry": {"type": "Point", "coordinates": [-133.98646462240168, 43.13279896628881]}}]}